COMMENT,ORIGINATOR,NORAD_CAT_ID,OBJECT_NAME,OBJECT_TYPE,CLASSIFICATION_TYPE,INTLDES,EPOCH,EPOCH_MICROSECONDS,MEAN_MOTION,ECCENTRICITY,INCLINATION,RA_OF_ASC_NODE,ARG_OF_PERICENTER,MEAN_ANOMALY,EPHEMERIS_TYPE,ELEMENT_SET_NO,REV_AT_EPOCH,BSTAR,MEAN_MOTION_DOT,MEAN_MOTION_DDOT,FILE,TLE_LINE0,TLE_LINE1,TLE_LINE2,OBJECT_ID,OBJECT_NUMBER,SEMIMAJOR_AXIS,PERIOD,APOGEE,PERIGEE,DECAYED,date
GENERATED VIA SPACETRACK.ORG API,18 SPCS,48893,SPACEBEE-106,PAYLOAD,U,21059Q,2023/4/12 7:43,619232,15.27100482,0.0008218,97.5872,237.9968,150.9837,209.1859,0,999,9932,0.0012167,0.00032402,0,3886230,0 SPACEBEE-106,1 48893U 21059Q   23102.32172013  .00032402  00000-0  12167-2 0  9996,2 48893  97.5872 237.9968 0008218 150.9837 209.1859 15.27100482 99325,2021-059Q,48893,6862.622,94.296,490.127,478.848,0,
GENERATED VIA SPACETRACK.ORG API,18 SPCS,48893,SPACEBEE-106,PAYLOAD,U,21059Q,2023/4/12 7:43,619232,15.27100482,0.0008218,97.5872,237.9968,150.9837,209.1859,0,999,9932,0.0012167,0.00032402,0,3886349,0 SPACEBEE-106,1 48893U 21059Q   23102.32172013  .00032402  00000-0  12167-2 0  9996,2 48893  97.5872 237.9968 0008218 150.9837 209.1859 15.27100482 99325,2021-059Q,48893,6862.622,94.296,490.127,478.848,0,
GENERATED VIA SPACETRACK.ORG API,18 SPCS,48893,SPACEBEE-106,PAYLOAD,U,21059Q,2023/4/13 8:52,807616,15.27177888,0.0008273,97.5871,239.063,147.0477,213.1279,0,999,9948,0.0013282,0.00035476,0,3886564,0 SPACEBEE-106,1 48893U 21059Q   23103.37010194  .00035476  00000-0  13282-2 0  9996,2 48893  97.5871 239.0630 0008273 147.0477 213.1279 15.27177888 99483,2021-059Q,48893,6862.39,94.292,489.933,478.578,0,
GENERATED VIA SPACETRACK.ORG API,18 SPCS,48893,SPACEBEE-106,PAYLOAD,U,21059Q,2023/4/14 10:02,425440,15.27258315,0.000816,97.5873,240.1296,143.8837,216.2954,0,999,9964,0.0014612,0.0003915,0,3887333,0 SPACEBEE-106,1 48893U 21059Q   23104.41843085  .00039150  00000-0  14612-2 0  9996,2 48893  97.5873 240.1296 0008160 143.8837 216.2954 15.27258315 99642,2021-059Q,48893,6862.15,94.287,489.614,478.415,0,
GENERATED VIA SPACETRACK.ORG API,18 SPCS,48893,SPACEBEE-106,PAYLOAD,U,21059Q,2023/4/15 8:03,828384,15.27339216,0.0008046,97.5869,241.0622,141.1476,219.0342,0,999,9978,0.0016163,0.00043443,0,3887974,0 SPACEBEE-106,1 48893U 21059Q   23105.33566931  .00043443  00000-0  16163-2 0  9993,2 48893  97.5869 241.0622 0008046 141.1476 219.0342 15.27339216 99780,2021-059Q,48893,6861.907,94.282,489.293,478.251,0,
GENERATED VIA SPACETRACK.ORG API,18 SPCS,48893,SPACEBEE-106,PAYLOAD,U,21059Q,2023/4/15 20:38,259840,15.27389107,0.0008019,97.5869,241.5952,139.3282,220.8556,0,999,9986,0.0016946,0.00045633,0,3888171,0 SPACEBEE-106,1 48893U 21059Q   23105.85978310  .00045633  00000-0  16946-2 0  9990,2 48893  97.5869 241.5952 0008019 139.3282 220.8556 15.27389107 99865,2021-059Q,48893,6861.758,94.279,489.125,478.12,0,
GENERATED VIA SPACETRACK.ORG API,18 SPCS,48893,SPACEBEE-106,PAYLOAD,U,21059Q,2023/4/16 4:29,687488,15.27417084,0.0008021,97.5874,241.9285,137.9256,222.26,0,999,9991,0.0016317,0.00043964,0,3888238,0 SPACEBEE-106,1 48893U 21059Q   23106.18734592  .00043964  00000-0  16317-2 0  9996,2 48893  97.5874 241.9285 0008021 137.9256 222.2600 15.27417084 99910,2021-059Q,48893,6861.674,94.277,489.043,478.035,0,
GENERATED VIA SPACETRACK.ORG API,18 SPCS,48893,SPACEBEE-106,PAYLOAD,U,21059Q,2023/4/16 7:38,78144,15.2743058,0.0007999,97.5874,242.0618,137.5635,222.6224,0,999,9993,0.0016455,0.00044357,0,3888626,0 SPACEBEE-106,1 48893U 21059Q   23106.31836896  .00044357  00000-0  16455-2 0  9991,2 48893  97.5874 242.0618 0007999 137.5635 222.6224 15.27430580 99936,2021-059Q,48893,6861.634,94.276,488.987,478.01,0,
GENERATED VIA SPACETRACK.ORG API,18 SPCS,48893,SPACEBEE-106,PAYLOAD,U,21059Q,2023/4/16 20:13,825152,15.27478502,0.0008001,97.5877,242.5949,135.5307,224.6576,0,999,10001,0.0016012,0.00043217,0,3888799,0 SPACEBEE-106,1 48893U 21059Q   23106.84245168  .00043217  00000-0  16012-2 0  9998,2 48893  97.5877 242.5949 0008001 135.5307 224.6576 15.27478502100010,2021-059Q,48893,6861.49,94.273,488.845,477.865,0,
GENERATED VIA SPACETRACK.ORG API,18 SPCS,48893,SPACEBEE-106,PAYLOAD,U,21059Q,2023/4/17 8:47,213952,15.27525028,0.0007988,97.5878,243.1281,133.6703,226.5199,0,999,10009,0.0016451,0.00044474,0,3889087,0 SPACEBEE-106,1 48893U 21059Q   23107.36651868  .00044474  00000-0  16451-2 0  9997,2 48893  97.5878 243.1281 0007988 133.6703 226.5199 15.27525028100095,2021-059Q,48893,6861.351,94.27,488.697,477.735,0,
GENERATED VIA SPACETRACK.ORG API,18 SPCS,48893,SPACEBEE-106,PAYLOAD,U,21059Q,2023/4/17 8:47,213952,15.27525028,0.0007988,97.5878,243.1281,133.6703,226.5199,0,999,10009,0.0016451,0.00044474,0,3889215,0 SPACEBEE-106,1 48893U 21059Q   23107.36651868  .00044474  00000-0  16451-2 0  9997,2 48893  97.5878 243.1281 0007988 133.6703 226.5199 15.27525028100095,2021-059Q,48893,6861.351,94.27,488.697,477.735,0,
GENERATED VIA SPACETRACK.ORG API,18 SPCS,48893,SPACEBEE-106,PAYLOAD,U,21059Q,2023/4/17 21:22,252320,15.27570659,0.0007961,97.588,243.6613,131.9923,228.1995,0,999,10017,0.0016168,0.00043764,0,3889391,0 SPACEBEE-106,1 48893U 21059Q   23107.89057005  .00043764  00000-0  16168-2 0  9994,2 48893  97.5880 243.6613 0007961 131.9923 228.1995 15.27570659100179,2021-059Q,48893,6861.214,94.267,488.541,477.617,0,
GENERATED VIA SPACETRACK.ORG API,18 SPCS,48893,SPACEBEE-106,PAYLOAD,U,21059Q,2023/4/18 8:22,445632,15.27608062,0.0007905,97.5881,244.1278,130.5793,229.6135,0,999,10024,0.0015564,0.00042164,0,3889684,0 SPACEBEE-106,1 48893U 21059Q   23108.34910238  .00042164  00000-0  15564-2 0  9993,2 48893  97.5881 244.1278 0007905 130.5793 229.6135 15.27608062100241,2021-059Q,48893,6861.102,94.265,488.391,477.543,0,
GENERATED VIA SPACETRACK.ORG API,18 SPCS,48893,SPACEBEE-106,PAYLOAD,U,21059Q,2023/4/18 14:40,393024,15.27630063,0.00079,97.5882,244.3945,129.7615,230.4321,0,999,10028,0.0015703,0.00042572,0,3889987,0 SPACEBEE-106,1 48893U 21059Q   23108.61111566  .00042572  00000-0  15703-2 0  9998,2 48893  97.5882 244.3945 0007900 129.7615 230.4321 15.27630063100280,2021-059Q,48893,6861.036,94.264,488.321,477.481,0,
GENERATED VIA SPACETRACK.ORG API,18 SPCS,48893,SPACEBEE-106,PAYLOAD,U,21059Q,2023/4/19 14:14,752096,15.27713495,0.0007798,97.5886,245.3942,126.4126,233.7833,0,999,10043,0.0015582,0.00042349,0,3890383,0 SPACEBEE-106,1 48893U 21059Q   23109.59363139  .00042349  00000-0  15582-2 0  9998,2 48893  97.5886 245.3942 0007798 126.4126 233.7833 15.27713495100430,2021-059Q,48893,6860.786,94.259,488.001,477.301,0,
GENERATED VIA SPACETRACK.ORG API,18 SPCS,48893,SPACEBEE-106,PAYLOAD,U,21059Q,2023/4/20 4:23,42688,15.27762608,0.0007796,97.589,245.9941,124.1096,236.0883,0,999,10052,0.00141,0.0003835,0,3890606,0 SPACEBEE-106,1 48893U 21059Q   23110.18311392  .00038350  00000-0  14100-2 0  9991,2 48893  97.5890 245.9941 0007796 124.1096 236.0883 15.27762608100520,2021-059Q,48893,6860.639,94.255,487.853,477.156,0,
GENERATED VIA SPACETRACK.ORG API,18 SPCS,48893,SPACEBEE-106,PAYLOAD,U,21059Q,2023/4/20 9:06,789056,15.27778719,0.0007776,97.5891,246.1941,123.4323,236.7661,0,999,10055,0.001355,0.00036862,0,3890827,0 SPACEBEE-106,1 48893U 21059Q   23110.37960404  .00036862  00000-0  13550-2 0  9990,2 48893  97.5891 246.1941 0007776 123.4323 236.7661 15.27778719100551,2021-059Q,48893,6860.591,94.254,487.791,477.121,0,
GENERATED VIA SPACETRACK.ORG API,18 SPCS,48893,SPACEBEE-106,PAYLOAD,U,21059Q,2023/4/20 15:23,178144,15.27798469,0.0007807,97.5892,246.4608,122.7335,237.4657,0,999,10059,0.0013111,0.00035681,0,3891109,0 SPACEBEE-106,1 48893U 21059Q   23110.64158771  .00035681  00000-0  13111-2 0  9997,2 48893  97.5892 246.4608 0007807 122.7335 237.4657 15.27798469100596,2021-059Q,48893,6860.532,94.253,487.753,477.041,0,
GENERATED VIA SPACETRACK.ORG API,18 SPCS,48893,SPACEBEE-106,PAYLOAD,U,21059Q,2023/4/21 3:58,211552,15.27834747,0.0007803,97.5892,246.9942,121.0769,239.1237,0,999,10067,0.0012931,0.00035227,0,3891529,0 SPACEBEE-106,1 48893U 21059Q   23111.16554643  .00035227  00000-0  12931-2 0  9998,2 48893  97.5892 246.9942 0007803 121.0769 239.1237 15.27834747100673,2021-059Q,48893,6860.423,94.251,487.642,476.935,0,
GENERATED VIA SPACETRACK.ORG API,18 SPCS,48893,SPACEBEE-106,PAYLOAD,U,21059Q,2023/4/21 14:58,606048,15.2786551,0.0007767,97.5894,247.4608,119.6167,240.5847,0,999,10074,0.0012264,0.00033429,0,3891591,0 SPACEBEE-106,1 48893U 21059Q   23111.62400007  .00033429  00000-0  12264-2 0  9994,2 48893  97.5894 247.4608 0007767 119.6167 240.5847 15.27865510100747,2021-059Q,48893,6860.331,94.249,487.525,476.868,0,
GENERATED VIA SPACETRACK.ORG API,18 SPCS,48893,SPACEBEE-106,PAYLOAD,U,21059Q,2023/4/21 14:58,606048,15.2786551,0.0007767,97.5894,247.4608,119.6167,240.5847,0,999,10074,0.0012264,0.00033429,0,3891716,0 SPACEBEE-106,1 48893U 21059Q   23111.62400007  .00033429  00000-0  12264-2 0  9994,2 48893  97.5894 247.4608 0007767 119.6167 240.5847 15.27865510100747,2021-059Q,48893,6860.331,94.249,487.525,476.868,0,
GENERATED VIA SPACETRACK.ORG API,18 SPCS,48893,SPACEBEE-106,PAYLOAD,U,21059Q,2023/4/21 21:15,687040,15.27887973,0.0007731,97.5895,247.7275,118.8277,241.3739,0,999,10078,0.0013176,0.00035957,0,3892071,0 SPACEBEE-106,1 48893U 21059Q   23111.88596860  .00035957  00000-0  13176-2 0  9996,2 48893  97.5895 247.7275 0007731 118.8277 241.3739 15.27887973100785,2021-059Q,48893,6860.264,94.248,487.433,476.825,0,
GENERATED VIA SPACETRACK.ORG API,18 SPCS,48893,SPACEBEE-106,PAYLOAD,U,21059Q,2023/4/22 14:33,980928,15.27941613,0.0007645,97.5897,248.4609,116.6689,243.5334,0,999,10089,0.0013697,0.0003745,0,3892146,0 SPACEBEE-106,1 48893U 21059Q   23112.60636552  .00037450  00000-0  13697-2 0  9998,2 48893  97.5897 248.4609 0007645 116.6689 243.5334 15.27941613100892,2021-059Q,48893,6860.104,94.244,487.213,476.724,0,
